start=new Date('2022-07-31T00:00:00.000Z').valueOf();
sats=[{"REF_FRAME":"TEME","RCS_SIZE":"LARGE","SITE":"AFETR","MEAN_ANOMALY":"296.9059","INCLINATION":"53.0521","NORAD_CAT_ID":"45182","SEMIMAJOR_AXIS":"6925.369","OBJECT_ID":"2020-012E","EPOCH":"2022-07-30T21:47:25.708416","BSTAR":"-0.00001220600000","TLE_LINE1":"1 45182U 20012E   22211.90793644 -.00000463  00000-0 -12206-4 0  9995","DECAY_DATE":null,"ECCENTRICITY":"0.00017840","TLE_LINE2":"2 45182  53.0521 182.3684 0001784  63.2113 296.9059 15.06393253136340","OBJECT_NAME":"STARLINK-1201","EPHEMERIS_TYPE":"0","OBJECT_TYPE":"PAYLOAD","CENTER_NAME":"EARTH","MEAN_MOTION_DDOT":"0.0000000000000","COUNTRY_CODE":"US","LAUNCH_DATE":"2020-02-17","CLASSIFICATION_TYPE":"U","ELEMENT_SET_NO":"999","APOAPSIS":"548.470","RA_OF_ASC_NODE":"182.3684","GP_ID":"209224943","FILE":"3525638","MEAN_MOTION":"15.06393253","REV_AT_EPOCH":"13634","MEAN_ELEMENT_THEORY":"SGP4","PERIOD":"95.593","MEAN_MOTION_DOT":"-0.00000463","PERIAPSIS":"545.999","ARG_OF_PERICENTER":"63.2113","TIME_SYSTEM":"UTC"},{"BSTAR":"-0.00005599100000","EPOCH":"2022-07-30T09:26:59.583552","OBJECT_ID":"2020-012F","SEMIMAJOR_AXIS":"6925.363","NORAD_CAT_ID":"45183","ECCENTRICITY":"0.00015930","DECAY_DATE":null,"TLE_LINE1":"1 45183U 20012F   22211.39374518 -.00001115  00000-0 -55991-4 0  9997","RCS_SIZE":"LARGE","SITE":"AFETR","INCLINATION":"53.0545","MEAN_ANOMALY":"291.4795","REF_FRAME":"TEME","MEAN_MOTION_DOT":"-0.00001115","PERIOD":"95.592","MEAN_ELEMENT_THEORY":"SGP4","FILE":"3525407","GP_ID":"209168749","MEAN_MOTION":"15.06395192","REV_AT_EPOCH":"13614","TIME_SYSTEM":"UTC","ARG_OF_PERICENTER":"68.6363","PERIAPSIS":"546.125","ELEMENT_SET_NO":"999","CLASSIFICATION_TYPE":"U","LAUNCH_DATE":"2020-02-17","RA_OF_ASC_NODE":"204.6874","APOAPSIS":"548.332","CENTER_NAME":"EARTH","COUNTRY_CODE":"US","MEAN_MOTION_DDOT":"0.0000000000000","TLE_LINE2":"2 45183  53.0545 204.6874 0001593  68.6363 291.4795 15.06395192136149","OBJECT_TYPE":"PAYLOAD","EPHEMERIS_TYPE":"0","OBJECT_NAME":"STARLINK-1202"},{"TLE_LINE2":"2 45184  53.0540 182.3455 0002034  61.1270 298.9923 15.06399389135537","OBJECT_TYPE":"PAYLOAD","OBJECT_NAME":"STARLINK-1205","EPHEMERIS_TYPE":"0","CENTER_NAME":"EARTH","COUNTRY_CODE":"US","MEAN_MOTION_DDOT":"0.0000000000000","ELEMENT_SET_NO":"999","LAUNCH_DATE":"2020-02-17","CLASSIFICATION_TYPE":"U","APOAPSIS":"548.624","RA_OF_ASC_NODE":"182.3455","MEAN_MOTION_DOT":"0.00000950","PERIOD":"95.592","MEAN_ELEMENT_THEORY":"SGP4","GP_ID":"209223941","REV_AT_EPOCH":"13553","FILE":"3525638","MEAN_MOTION":"15.06399389","TIME_SYSTEM":"UTC","PERIAPSIS":"545.807","ARG_OF_PERICENTER":"61.1270","REF_FRAME":"TEME","RCS_SIZE":"LARGE","SITE":"AFETR","INCLINATION":"53.0540","MEAN_ANOMALY":"298.9923","OBJECT_ID":"2020-012G","EPOCH":"2022-07-30T21:58:02.335584","BSTAR":"0.00008265600000","NORAD_CAT_ID":"45184","SEMIMAJOR_AXIS":"6925.350","DECAY_DATE":null,"ECCENTRICITY":"0.00020340","TLE_LINE1":"1 45184U 20012G   22211.91530481  .00000950  00000-0  82656-4 0  9991"},{"RCS_SIZE":"LARGE","SITE":"AFETR","MEAN_ANOMALY":"287.4089","INCLINATION":"53.0550","REF_FRAME":"TEME","NORAD_CAT_ID":"45185","SEMIMAJOR_AXIS":"6925.370","OBJECT_ID":"2020-012H","EPOCH":"2022-07-30T17:14:04.756704","BSTAR":"-0.00002914000000","TLE_LINE1":"1 45185U 20012H   22211.71811061 -.00000715  00000-0 -29140-4 0  9996","ECCENTRICITY":"0.00016780","DECAY_DATE":null,"CENTER_NAME":"EARTH","MEAN_MOTION_DDOT":"0.0000000000000","COUNTRY_CODE":"US","TLE_LINE2":"2 45185  53.0550 203.2243 0001678  72.7084 287.4089 15.06393037136138","OBJECT_NAME":"STARLINK-1216","EPHEMERIS_TYPE":"0","OBJECT_TYPE":"PAYLOAD","FILE":"3525638","GP_ID":"209225192","REV_AT_EPOCH":"13613","MEAN_MOTION":"15.06393037","PERIOD":"95.593","MEAN_MOTION_DOT":"-0.00000715","MEAN_ELEMENT_THEORY":"SGP4","PERIAPSIS":"546.073","ARG_OF_PERICENTER":"72.7084","TIME_SYSTEM":"UTC","CLASSIFICATION_TYPE":"U","LAUNCH_DATE":"2020-02-17","ELEMENT_SET_NO":"999","APOAPSIS":"548.397","RA_OF_ASC_NODE":"203.2243"},{"MEAN_ANOMALY":"299.7222","INCLINATION":"53.0543","SITE":"AFETR","RCS_SIZE":"LARGE","REF_FRAME":"TEME","TLE_LINE1":"1 45186U 20012J   22211.93189631  .00000723  00000-0  67437-4 0  9990","DECAY_DATE":null,"ECCENTRICITY":"0.00017030","SEMIMAJOR_AXIS":"6925.385","NORAD_CAT_ID":"45186","BSTAR":"0.00006743700000","EPOCH":"2022-07-30T22:21:55.841184","OBJECT_ID":"2020-012J","MEAN_MOTION_DDOT":"0.0000000000000","COUNTRY_CODE":"US","CENTER_NAME":"EARTH","EPHEMERIS_TYPE":"0","OBJECT_NAME":"STARLINK-1224","OBJECT_TYPE":"PAYLOAD","TLE_LINE2":"2 45186  53.0543 202.2705 0001703  60.3936 299.7222 15.06388027136162","ARG_OF_PERICENTER":"60.3936","PERIAPSIS":"546.071","TIME_SYSTEM":"UTC","REV_AT_EPOCH":"13616","GP_ID":"209225442","FILE":"3525638","MEAN_MOTION":"15.06388027","PERIOD":"95.593","MEAN_MOTION_DOT":"0.00000723","MEAN_ELEMENT_THEORY":"SGP4","RA_OF_ASC_NODE":"202.2705","APOAPSIS":"548.430","LAUNCH_DATE":"2020-02-17","CLASSIFICATION_TYPE":"U","ELEMENT_SET_NO":"999"},{"MEAN_ANOMALY":"295.0502","INCLINATION":"53.0541","RCS_SIZE":"LARGE","SITE":"AFETR","REF_FRAME":"TEME","TLE_LINE1":"1 45187U 20012K   22211.67020241  .00000421  00000-0  47193-4 0  9995","DECAY_DATE":null,"ECCENTRICITY":"0.00016140","NORAD_CAT_ID":"45187","SEMIMAJOR_AXIS":"6925.343","OBJECT_ID":"2020-012K","BSTAR":"0.00004719300000","EPOCH":"2022-07-30T16:05:05.488224","MEAN_MOTION_DDOT":"0.0000000000000","COUNTRY_CODE":"US","CENTER_NAME":"EARTH","OBJECT_NAME":"STARLINK-1225","EPHEMERIS_TYPE":"0","OBJECT_TYPE":"PAYLOAD","TLE_LINE2":"2 45187  53.0541 203.4481 0001614  65.0655 295.0502 15.06401764136171","PERIAPSIS":"546.090","ARG_OF_PERICENTER":"65.0655","TIME_SYSTEM":"UTC","MEAN_MOTION":"15.06401764","GP_ID":"209224192","FILE":"3525638","REV_AT_EPOCH":"13617","PERIOD":"95.592","MEAN_MOTION_DOT":"0.00000421","MEAN_ELEMENT_THEORY":"SGP4","APOAPSIS":"548.326","RA_OF_ASC_NODE":"203.4481","LAUNCH_DATE":"2020-02-17","CLASSIFICATION_TYPE":"U","ELEMENT_SET_NO":"999"},{"SEMIMAJOR_AXIS":"6925.361","NORAD_CAT_ID":"45188","EPOCH":"2022-07-30T13:36:27.846144","BSTAR":"-0.00005859700000","OBJECT_ID":"2020-012L","TLE_LINE1":"1 45188U 20012L   22211.56698896 -.00001154  00000-0 -58597-4 0  9997","DECAY_DATE":null,"ECCENTRICITY":"0.00017120","REF_FRAME":"TEME","SITE":"AFETR","RCS_SIZE":"LARGE","MEAN_ANOMALY":"295.3329","INCLINATION":"53.0534","CLASSIFICATION_TYPE":"U","LAUNCH_DATE":"2020-02-17","ELEMENT_SET_NO":"999","RA_OF_ASC_NODE":"163.9091","APOAPSIS":"548.412","REV_AT_EPOCH":"13667","GP_ID":"209169488","FILE":"3525407","MEAN_MOTION":"15.06395978","MEAN_MOTION_DOT":"-0.00001154","PERIOD":"95.592","MEAN_ELEMENT_THEORY":"SGP4","ARG_OF_PERICENTER":"64.7838","PERIAPSIS":"546.040","TIME_SYSTEM":"UTC","TLE_LINE2":"2 45188  53.0534 163.9091 0001712  64.7838 295.3329 15.06395978136673","EPHEMERIS_TYPE":"0","OBJECT_NAME":"STARLINK-1228","OBJECT_TYPE":"PAYLOAD","CENTER_NAME":"EARTH","COUNTRY_CODE":"US","MEAN_MOTION_DDOT":"0.0000000000000"},{"CENTER_NAME":"EARTH","MEAN_MOTION_DDOT":"0.0000000000000","COUNTRY_CODE":"US","TLE_LINE2":"2 45189  53.0547 202.8380 0001701  73.4140 286.7036 15.06389678133422","OBJECT_NAME":"STARLINK-1230","EPHEMERIS_TYPE":"0","OBJECT_TYPE":"PAYLOAD","MEAN_MOTION":"15.06389678","GP_ID":"209224693","FILE":"3525638","REV_AT_EPOCH":"13342","PERIOD":"95.593","MEAN_MOTION_DOT":"0.00000674","MEAN_ELEMENT_THEORY":"SGP4","PERIAPSIS":"546.067","ARG_OF_PERICENTER":"73.4140","TIME_SYSTEM":"UTC","LAUNCH_DATE":"2020-02-17","CLASSIFICATION_TYPE":"U","ELEMENT_SET_NO":"999","APOAPSIS":"548.423","RA_OF_ASC_NODE":"202.8380","RCS_SIZE":"LARGE","SITE":"AFETR","MEAN_ANOMALY":"286.7036","INCLINATION":"53.0547","REF_FRAME":"TEME","NORAD_CAT_ID":"45189","SEMIMAJOR_AXIS":"6925.380","OBJECT_ID":"2020-012M","BSTAR":"0.00006415300000","EPOCH":"2022-07-30T19:21:28.650240","TLE_LINE1":"1 45189U 20012M   22211.80658160  .00000674  00000-0  64153-4 0  9994","ECCENTRICITY":"0.00017010","DECAY_DATE":null},{"TLE_LINE2":"2 45190  53.0549 162.4588 0002332  57.7172 302.4043 15.06399072136671","OBJECT_TYPE":"PAYLOAD","EPHEMERIS_TYPE":"0","OBJECT_NAME":"STARLINK-1234","CENTER_NAME":"EARTH","MEAN_MOTION_DDOT":"0.0000000000000","COUNTRY_CODE":"US","ELEMENT_SET_NO":"999","LAUNCH_DATE":"2020-02-17","CLASSIFICATION_TYPE":"U","RA_OF_ASC_NODE":"162.4588","APOAPSIS":"548.831","PERIOD":"95.592","MEAN_MOTION_DOT":"-0.00000120","MEAN_ELEMENT_THEORY":"SGP4","GP_ID":"209224944","REV_AT_EPOCH":"13667","FILE":"3525638","MEAN_MOTION":"15.06399072","TIME_SYSTEM":"UTC","ARG_OF_PERICENTER":"57.7172","PERIAPSIS":"545.601","REF_FRAME":"TEME","RCS_SIZE":"LARGE","SITE":"AFETR","INCLINATION":"53.0549","MEAN_ANOMALY":"302.4043","EPOCH":"2022-07-30T21:23:32.278848","BSTAR":"0.00001085100000","OBJECT_ID":"2020-012N","SEMIMAJOR_AXIS":"6925.351","NORAD_CAT_ID":"45190","DECAY_DATE":null,"ECCENTRICITY":"0.00023320","TLE_LINE1":"1 45190U 20012N   22211.89134582 -.00000120  00000-0  10851-4 0  9995"},{"DECAY_DATE":null,"ECCENTRICITY":"0.00016030","TLE_LINE1":"1 45191U 20012P   22211.68124957 -.00000933  00000-0 -43773-4 0  9990","BSTAR":"-0.00004377300000","EPOCH":"2022-07-30T16:20:59.962848","OBJECT_ID":"2020-012P","SEMIMAJOR_AXIS":"6925.368","NORAD_CAT_ID":"45191","REF_FRAME":"TEME","INCLINATION":"53.0535","MEAN_ANOMALY":"295.2085","SITE":"AFETR","RCS_SIZE":"LARGE","RA_OF_ASC_NODE":"203.3960","APOAPSIS":"548.343","ELEMENT_SET_NO":"999","LAUNCH_DATE":"2020-02-17","CLASSIFICATION_TYPE":"U","TIME_SYSTEM":"UTC","ARG_OF_PERICENTER":"64.9070","PERIAPSIS":"546.123","MEAN_ELEMENT_THEORY":"SGP4","PERIOD":"95.593","MEAN_MOTION_DOT":"-0.00000933","GP_ID":"209223692","MEAN_MOTION":"15.06393730","FILE":"3525638","REV_AT_EPOCH":"13339","OBJECT_TYPE":"PAYLOAD","EPHEMERIS_TYPE":"0","OBJECT_NAME":"STARLINK-1236","TLE_LINE2":"2 45191  53.0535 203.3960 0001603  64.9070 295.2085 15.06393730133399","COUNTRY_CODE":"US","MEAN_MOTION_DDOT":"0.0000000000000","CENTER_NAME":"EARTH"}];
